{
    "links": {
        "self": "http://www.neowsapp.com/rest/v1/neo/3670142?api_key=iIulBulltgU6a56xZRHN4H3l9WmuAYTsLGpBGhQ2"
    },
    "id": "3670142",
    "neo_reference_id": "3670142",
    "name": "(2014 JD)",
    "designation": "2014 JD",
    "nasa_jpl_url": "http://ssd.jpl.nasa.gov/sbdb.cgi?sstr=3670142",
    "absolute_magnitude_h": 26.3,
    "estimated_diameter": {
        "kilometers": {
            "estimated_diameter_min": 0.0146067964,
            "estimated_diameter_max": 0.0326617897
        },
        "meters": {
            "estimated_diameter_min": 14.6067964271,
            "estimated_diameter_max": 32.6617897446
        },
        "miles": {
            "estimated_diameter_min": 0.0090762397,
            "estimated_diameter_max": 0.020295089
        },
        "feet": {
            "estimated_diameter_min": 47.92256199,
            "estimated_diameter_max": 107.1581062656
        }
    },
    "is_potentially_hazardous_asteroid": false,
    "close_approach_data": [
        {
            "close_approach_date": "2014-05-09",
            "close_approach_date_full": "2014-May-09 23:49",
            "epoch_date_close_approach": 1399679340000,
            "relative_velocity": {
                "kilometers_per_second": "10.4564880329",
                "kilometers_per_hour": "37643.3569182942",
                "miles_per_hour": "23390.1180807034"
            },
            "miss_distance": {
                "astronomical": "0.019704766",
                "lunar": "7.665153974",
                "kilometers": "2947791.02244842",
                "miles": "1831672.405571396"
            },
            "orbiting_body": "Earth"
        }
    ],
    "orbital_data": {
        "orbit_id": "9",
        "orbit_determination_date": "2017-04-06 08:40:42",
        "first_observation_date": "2014-05-02",
        "last_observation_date": "2014-05-08",
        "data_arc_in_days": 6,
        "observations_used": 37,
        "orbit_uncertainty": "8",
        "minimum_orbit_intersection": ".00594437",
        "jupiter_tisserand_invariant": "3.453",
        "epoch_osculation": "2456780.5",
        "eccentricity": ".5607373579543032",
        "semi_major_axis": "2.185696727297466",
        "inclination": "1.83666709872854",
        "ascending_node_longitude": "63.32292892495734",
        "orbital_period": "1180.27519469571",
        "perihelion_distance": ".9600949191433177",
        "perihelion_argument": "199.7677934464984",
        "aphelion_distance": "3.411298535451614",
        "perihelion_time": "2456813.894735976379",
        "mean_anomaly": "349.814150966211",
        "mean_motion": ".3050136117558689",
        "equinox": "J2000",
        "orbit_class": {
            "orbit_class_type": "APO",
            "orbit_class_description": "Near-Earth asteroid orbits which cross the Earth’s orbit similar to that of 1862 Apollo",
            "orbit_class_range": "a (semi-major axis) > 1.0 AU; q (perihelion) < 1.017 AU"
        }
    },
    "is_sentry_object": false
}